start=new Date('2023-02-08T00:00:00.000Z').valueOf();
sats=[{"INCLINATION":"53.0544","LAUNCH_DATE":"2021-01-20","SITE":"AFETR","EPHEMERIS_TYPE":"0","RA_OF_ASC_NODE":"72.8203","SEMIMAJOR_AXIS":"6925.311","TLE_LINE2":"2 47372  53.0544  72.8203 0001696 101.1772 258.9407 15.06412376113352","OBJECT_NAME":"STARLINK-2089","CENTER_NAME":"EARTH","MEAN_MOTION_DOT":"0.00002340","OBJECT_ID":"2021-005Z","APOAPSIS":"548.350","TIME_SYSTEM":"UTC","CLASSIFICATION_TYPE":"U","BSTAR":"0.00017591000000","MEAN_MOTION":"15.06412376","DECAY_DATE":null,"FILE":"3777208","PERIAPSIS":"546.001","EPOCH":"2023-02-07T10:51:28.184256","ECCENTRICITY":"0.00016960","REF_FRAME":"TEME","GP_ID":"224704034","PERIOD":"95.591","OBJECT_TYPE":"PAYLOAD","RCS_SIZE":"LARGE","MEAN_ELEMENT_THEORY":"SGP4","MEAN_ANOMALY":"258.9407","REV_AT_EPOCH":"11335","MEAN_MOTION_DDOT":"0.0000000000000","NORAD_CAT_ID":"47372","ELEMENT_SET_NO":"999","COUNTRY_CODE":"US","TLE_LINE1":"1 47372U 21005Z   23038.45240954  .00002340  00000-0  17591-3 0  9995","ARG_OF_PERICENTER":"101.1772"},{"OBJECT_ID":"2021-005AA","MEAN_MOTION_DOT":"0.00000142","BSTAR":"0.00002844500000","MEAN_MOTION":"15.06401503","APOAPSIS":"548.085","TIME_SYSTEM":"UTC","CLASSIFICATION_TYPE":"U","TLE_LINE2":"2 47373  53.0538  77.4882 0001265 109.0758 251.0368 15.06401503113296","OBJECT_NAME":"STARLINK-2092","CENTER_NAME":"EARTH","SITE":"AFETR","EPHEMERIS_TYPE":"0","RA_OF_ASC_NODE":"77.4882","SEMIMAJOR_AXIS":"6925.344","INCLINATION":"53.0538","LAUNCH_DATE":"2021-01-20","NORAD_CAT_ID":"47373","TLE_LINE1":"1 47373U 21005AA  23038.45375775  .00000142  00000-0  28445-4 0  9995","ARG_OF_PERICENTER":"109.0758","ELEMENT_SET_NO":"999","COUNTRY_CODE":"US","RCS_SIZE":"LARGE","MEAN_ELEMENT_THEORY":"SGP4","MEAN_ANOMALY":"251.0368","OBJECT_TYPE":"PAYLOAD","REV_AT_EPOCH":"11329","MEAN_MOTION_DDOT":"0.0000000000000","EPOCH":"2023-02-07T10:53:24.669600","ECCENTRICITY":"0.00012650","GP_ID":"224702798","PERIOD":"95.592","REF_FRAME":"TEME","DECAY_DATE":null,"FILE":"3777208","PERIAPSIS":"546.333"},{"LAUNCH_DATE":"2021-01-20","INCLINATION":"53.0566","RA_OF_ASC_NODE":"77.3976","SEMIMAJOR_AXIS":"6925.345","SITE":"AFETR","EPHEMERIS_TYPE":"0","OBJECT_NAME":"STARLINK-2093","CENTER_NAME":"EARTH","TLE_LINE2":"2 47374  53.0566  77.3976 0001184  99.6060 260.5062 15.06401092113290","BSTAR":"0.00007869800000","MEAN_MOTION":"15.06401092","APOAPSIS":"548.030","CLASSIFICATION_TYPE":"U","TIME_SYSTEM":"UTC","OBJECT_ID":"2021-005AB","MEAN_MOTION_DOT":"0.00000891","FILE":"3777208","PERIAPSIS":"546.390","DECAY_DATE":null,"GP_ID":"224703044","PERIOD":"95.592","REF_FRAME":"TEME","EPOCH":"2023-02-07T11:23:54.033216","ECCENTRICITY":"0.00011840","REV_AT_EPOCH":"11329","MEAN_MOTION_DDOT":"0.0000000000000","RCS_SIZE":"LARGE","MEAN_ANOMALY":"260.5062","MEAN_ELEMENT_THEORY":"SGP4","OBJECT_TYPE":"PAYLOAD","TLE_LINE1":"1 47374U 21005AB  23038.47493094  .00000891  00000-0  78698-4 0  9999","ARG_OF_PERICENTER":"99.6060","ELEMENT_SET_NO":"999","COUNTRY_CODE":"US","NORAD_CAT_ID":"47374"},{"REF_FRAME":"TEME","GP_ID":"224703292","PERIOD":"95.590","ECCENTRICITY":"0.00015780","EPOCH":"2023-02-07T11:30:34.293312","FILE":"3777208","PERIAPSIS":"546.012","DECAY_DATE":null,"ELEMENT_SET_NO":"999","COUNTRY_CODE":"US","TLE_LINE1":"1 47375U 21005AC  23038.47956358  .00009699  00000-0  66846-3 0  9993","ARG_OF_PERICENTER":"84.7023","NORAD_CAT_ID":"47375","REV_AT_EPOCH":"11329","MEAN_MOTION_DDOT":"0.0000000000000","OBJECT_TYPE":"PAYLOAD","RCS_SIZE":"LARGE","MEAN_ANOMALY":"275.4146","MEAN_ELEMENT_THEORY":"SGP4","RA_OF_ASC_NODE":"77.3689","SEMIMAJOR_AXIS":"6925.239","SITE":"AFETR","EPHEMERIS_TYPE":"0","LAUNCH_DATE":"2021-01-20","INCLINATION":"53.0542","APOAPSIS":"548.197","CLASSIFICATION_TYPE":"U","TIME_SYSTEM":"UTC","MEAN_MOTION":"15.06435628","BSTAR":"0.00066846000000","MEAN_MOTION_DOT":"0.00009699","OBJECT_ID":"2021-005AC","OBJECT_NAME":"STARLINK-2094","CENTER_NAME":"EARTH","TLE_LINE2":"2 47375  53.0542  77.3689 0001578  84.7023 275.4146 15.06435628113297"},{"CENTER_NAME":"EARTH","OBJECT_NAME":"STARLINK-2096","TLE_LINE2":"2 47376  53.0532  77.3550 0001390  87.5569 272.5579 15.06404584113297","BSTAR":"0.00010771000000","MEAN_MOTION":"15.06404584","TIME_SYSTEM":"UTC","CLASSIFICATION_TYPE":"U","APOAPSIS":"548.162","OBJECT_ID":"2021-005AD","MEAN_MOTION_DOT":"0.00001323","LAUNCH_DATE":"2021-01-20","INCLINATION":"53.0532","SEMIMAJOR_AXIS":"6925.335","RA_OF_ASC_NODE":"77.3550","SITE":"AFETR","EPHEMERIS_TYPE":"0","MEAN_MOTION_DDOT":"0.0000000000000","REV_AT_EPOCH":"11329","MEAN_ELEMENT_THEORY":"SGP4","MEAN_ANOMALY":"272.5579","RCS_SIZE":"LARGE","OBJECT_TYPE":"PAYLOAD","ARG_OF_PERICENTER":"87.5569","TLE_LINE1":"1 47376U 21005AD  23038.48324654  .00001323  00000-0  10771-3 0  9995","COUNTRY_CODE":"US","ELEMENT_SET_NO":"999","NORAD_CAT_ID":"47376","PERIAPSIS":"546.237","FILE":"3777208","DECAY_DATE":null,"GP_ID":"224703534","PERIOD":"95.592","REF_FRAME":"TEME","ECCENTRICITY":"0.00013900","EPOCH":"2023-02-07T11:35:52.501056"},{"REF_FRAME":"TEME","GP_ID":"224702298","PERIOD":"95.591","ECCENTRICITY":"0.00011530","EPOCH":"2023-02-07T12:50:10.519008","FILE":"3777208","PERIAPSIS":"546.361","DECAY_DATE":null,"ELEMENT_SET_NO":"999","COUNTRY_CODE":"US","TLE_LINE1":"1 47377U 21005AE  23038.53484397  .00005456  00000-0  38469-3 0  9998","ARG_OF_PERICENTER":"86.2530","NORAD_CAT_ID":"47377","REV_AT_EPOCH":"11330","MEAN_MOTION_DDOT":"0.0000000000000","OBJECT_TYPE":"PAYLOAD","RCS_SIZE":"LARGE","MEAN_ELEMENT_THEORY":"SGP4","MEAN_ANOMALY":"273.8591","RA_OF_ASC_NODE":"77.1237","SEMIMAJOR_AXIS":"6925.294","EPHEMERIS_TYPE":"0","SITE":"AFETR","LAUNCH_DATE":"2021-01-20","INCLINATION":"53.0536","APOAPSIS":"547.958","TIME_SYSTEM":"UTC","CLASSIFICATION_TYPE":"U","BSTAR":"0.00038469000000","MEAN_MOTION":"15.06417777","MEAN_MOTION_DOT":"0.00005456","OBJECT_ID":"2021-005AE","OBJECT_NAME":"STARLINK-2097","CENTER_NAME":"EARTH","TLE_LINE2":"2 47377  53.0536  77.1237 0001153  86.2530 273.8591 15.06417777113301"},{"OBJECT_ID":"2021-005AF","MEAN_MOTION_DOT":"0.00003694","BSTAR":"0.00026668000000","MEAN_MOTION":"15.06409927","CLASSIFICATION_TYPE":"U","TIME_SYSTEM":"UTC","APOAPSIS":"548.151","TLE_LINE2":"2 47378  53.0535  37.7550 0001398  89.9087 270.2063 15.06409927113841","CENTER_NAME":"EARTH","OBJECT_NAME":"STARLINK-2098","SITE":"AFETR","EPHEMERIS_TYPE":"0","SEMIMAJOR_AXIS":"6925.318","RA_OF_ASC_NODE":"37.7550","INCLINATION":"53.0535","LAUNCH_DATE":"2021-01-20","NORAD_CAT_ID":"47378","ARG_OF_PERICENTER":"89.9087","TLE_LINE1":"1 47378U 21005AF  23038.39478555  .00003694  00000-0  26668-3 0  9992","COUNTRY_CODE":"US","ELEMENT_SET_NO":"999","MEAN_ELEMENT_THEORY":"SGP4","MEAN_ANOMALY":"270.2063","RCS_SIZE":"LARGE","OBJECT_TYPE":"PAYLOAD","MEAN_MOTION_DDOT":"0.0000000000000","REV_AT_EPOCH":"11384","ECCENTRICITY":"0.00013980","EPOCH":"2023-02-07T09:28:29.471520","GP_ID":"224702544","PERIOD":"95.592","REF_FRAME":"TEME","DECAY_DATE":null,"PERIAPSIS":"546.215","FILE":"3777208"},{"PERIAPSIS":"546.007","FILE":"3777520","DECAY_DATE":null,"REF_FRAME":"TEME","GP_ID":"224712721","PERIOD":"95.591","ECCENTRICITY":"0.00016600","EPOCH":"2023-02-07T11:14:37.630176","MEAN_MOTION_DDOT":"0.0000000000000","REV_AT_EPOCH":"11385","OBJECT_TYPE":"PAYLOAD","MEAN_ANOMALY":"266.1851","MEAN_ELEMENT_THEORY":"SGP4","RCS_SIZE":"LARGE","COUNTRY_CODE":"US","ELEMENT_SET_NO":"999","ARG_OF_PERICENTER":"93.9328","TLE_LINE1":"1 47379U 21005AG  23038.46849109  .00002693  00000-0  19955-3 0  9997","NORAD_CAT_ID":"47379","LAUNCH_DATE":"2021-01-20","INCLINATION":"53.0538","SEMIMAJOR_AXIS":"6925.292","RA_OF_ASC_NODE":"37.4280","EPHEMERIS_TYPE":"0","SITE":"AFETR","CENTER_NAME":"EARTH","OBJECT_NAME":"STARLINK-2099","TLE_LINE2":"2 47379  53.0538  37.4280 0001660  93.9328 266.1851 15.06418597113850","TIME_SYSTEM":"UTC","CLASSIFICATION_TYPE":"U","APOAPSIS":"548.306","BSTAR":"0.00019955000000","MEAN_MOTION":"15.06418597","MEAN_MOTION_DOT":"0.00002693","OBJECT_ID":"2021-005AG"},{"MEAN_MOTION_DDOT":"0.0000000000000","REV_AT_EPOCH":"11371","MEAN_ANOMALY":"263.9035","MEAN_ELEMENT_THEORY":"SGP4","RCS_SIZE":"LARGE","OBJECT_TYPE":"PAYLOAD","ARG_OF_PERICENTER":"96.2110","TLE_LINE1":"1 47380U 21005AH  23038.43072783  .00027313  00000-0  18427-2 0  9990","COUNTRY_CODE":"US","ELEMENT_SET_NO":"999","NORAD_CAT_ID":"47380","PERIAPSIS":"546.094","FILE":"3777208","DECAY_DATE":null,"GP_ID":"224704035","PERIOD":"95.589","REF_FRAME":"TEME","ECCENTRICITY":"0.00013740","EPOCH":"2023-02-07T10:20:14.884512","CENTER_NAME":"EARTH","OBJECT_NAME":"STARLINK-2100","TLE_LINE2":"2 47380  53.0524  47.5986 0001374  96.2110 263.9035 15.06454770113716","BSTAR":"0.00184270000000","MEAN_MOTION":"15.06454770","TIME_SYSTEM":"UTC","CLASSIFICATION_TYPE":"U","APOAPSIS":"547.997","OBJECT_ID":"2021-005AH","MEAN_MOTION_DOT":"0.00027313","LAUNCH_DATE":"2021-01-20","INCLINATION":"53.0524","SEMIMAJOR_AXIS":"6925.181","RA_OF_ASC_NODE":"47.5986","SITE":"AFETR","EPHEMERIS_TYPE":"0"},{"RCS_SIZE":"LARGE","MEAN_ELEMENT_THEORY":"SGP4","MEAN_ANOMALY":"267.8991","OBJECT_TYPE":"PAYLOAD","REV_AT_EPOCH":"11365","MEAN_MOTION_DDOT":"0.0000000000000","NORAD_CAT_ID":"47381","TLE_LINE1":"1 47381U 21005AJ  23038.51321931  .00028195  00000-0  19018-2 0  9998","ARG_OF_PERICENTER":"92.2177","ELEMENT_SET_NO":"999","COUNTRY_CODE":"US","DECAY_DATE":null,"FILE":"3777208","PERIAPSIS":"545.986","EPOCH":"2023-02-07T12:19:02.148384","ECCENTRICITY":"0.00015660","PERIOD":"95.589","GP_ID":"224702799","REF_FRAME":"TEME","TLE_LINE2":"2 47381  53.0542  52.3046 0001566  92.2177 267.8991 15.06446570113656","OBJECT_NAME":"STARLINK-2101","CENTER_NAME":"EARTH","OBJECT_ID":"2021-005AJ","MEAN_MOTION_DOT":"0.00028195","BSTAR":"0.00190180000000","MEAN_MOTION":"15.06446570","APOAPSIS":"548.155","TIME_SYSTEM":"UTC","CLASSIFICATION_TYPE":"U","INCLINATION":"53.0542","LAUNCH_DATE":"2021-01-20","SITE":"AFETR","EPHEMERIS_TYPE":"0","RA_OF_ASC_NODE":"52.3046","SEMIMAJOR_AXIS":"6925.206"}];
